STARLINK-35208          
1 65854U 25223A   25303.93108997  .00066078  00000+0  16466-2 0  9992
2 65854  53.1605 179.4002 0001242  97.8257 262.2889 15.39639384  4305
STARLINK-35200          
1 65855U 25223B   25303.91668981  .00020899  00000+0  53171-3 0  9991
2 65855  53.1591 179.1109 0001202 104.6289 355.9708 15.39580126  5606
STARLINK-35459          
1 65856U 25223C   25303.91668981  .00029607  00000+0  74795-3 0  9993
2 65856  53.1609 179.3144 0001057  82.8606 274.6487 15.39592407  5602
STARLINK-35489          
1 65857U 25223D   25303.89078863 -.00050037  00000+0 -90327-3 0  9997
2 65857  53.1600 179.1459 0001865  16.7508 343.3562 15.49120872  4303
STARLINK-35199          
1 65858U 25223E   25303.91668981  .00027245  00000+0  68919-3 0  9992
2 65858  53.1604 179.2121 0001154 104.9308 304.0788 15.39597339  5607
STARLINK-35408          
1 65859U 25223F   25303.86153266  .00060853  00000+0  15188-2 0  9993
2 65859  53.1609 179.6760 0001266  67.9022 292.2118 15.39626647  4295
STARLINK-35303          
1 65860U 25223G   25303.91668981  .00027289  00000+0  69044-3 0  9993
2 65860  53.1608 179.2637 0001277  89.5476 293.7232 15.39589833  5604
STARLINK-35258          
1 65861U 25223H   25303.89007009  .00104376  00000+0  18577-2 0  9996
2 65861  53.1595 179.1407 0000613  80.8937 279.2141 15.49340575  4306
STARLINK-35386          
1 65862U 25223J   25303.91668981  .00039556  00000+0  99418-3 0  9993
2 65862  53.1599 179.1600 0000311 149.7484 284.9670 15.39606709  5600
STARLINK-35469          
1 65863U 25223K   25303.85688191  .00051167  00000+0  12813-2 0  9997
2 65863  53.1613 179.6464 0001163  63.4369 296.6755 15.39603771  4295
STARLINK-35471          
1 65864U 25223L   25303.91668981 -.00468121  00000+0 -12314-1 0  9999
2 65864  53.1593 179.0578 0000699  99.6304  26.5331 15.39897540  5601
STARLINK-35475          
1 65865U 25223M   25303.91668981 -.02069548  00000+0 -51334-1 0  9997
2 65865  53.1595 179.0174 0001264  80.0310  66.2686 15.43425767  5603
STARLINK-35312          
1 65866U 25223N   25303.88766816  .00126645  00000+0  22458-2 0  9994
2 65866  53.1598 179.1239 0001432  84.2613 275.8560 15.49342449  4305
STARLINK-35456          
1 65867U 25223P   25303.88732355  .00112982  00000+0  20079-2 0  9992
2 65867  53.1602 179.1224 0001080  71.6850 288.4277 15.49342285  4301
STARLINK-35450          
1 65868U 25223Q   25303.91668981  .00032269  00000+0  81396-3 0  9999
2 65868  53.1605 179.3088 0001347 100.8512 258.4982 15.39594680  5602
STARLINK-35441          
1 65869U 25223R   25303.92146736  .00042521  00000+0  10680-2 0  9999
2 65869  53.1609 179.3355 0001366  91.7014 268.4148 15.39593263  4307
STARLINK-35433          
1 65870U 25223S   25303.91668981  .00024762  00000+0  62755-3 0  9999
2 65870  53.1603 179.2051 0001393  99.5700 311.2834 15.39593774  5603
STARLINK-35465          
1 65871U 25223T   25303.91668981  .00024071  00000+0  61044-3 0  9993
2 65871  53.1608 179.2564 0001276  81.0651 304.0404 15.39590981  5609
STARLINK-34108          
1 65872U 25223U   25303.91668981  .00028484  00000+0  72015-3 0  9996
2 65872  53.1594 179.1029 0001062 105.8064 356.5721 15.39589457  5515
STARLINK-35423          
1 65873U 25223V   25303.91668981  .00028909  00000+0  73110-3 0  9996
2 65873  53.1591 179.0513 0001334 100.5845  27.5427 15.39572831  5607
STARLINK-35425          
1 65874U 25223W   25303.91668981  .00030279  00000+0  76467-3 0  9998
2 65874  53.1599 179.1536 0001316  70.0472   6.5607 15.39590854  5601
STARLINK-34688          
1 65875U 25223X   25303.91668981 -.01876864  00000+0 -49751-1 0  9994
2 65875  53.1590 179.0016 0001277  77.0530  75.8716 15.41115331  5609
STARLINK-34438          
1 65876U 25223Y   25303.91668981 -.02075861  00000+0 -44596-1 0  9996
2 65876  53.1592 178.9487 0001323  86.2575  93.8156 15.47592264  5603
STARLINK-35462          
1 65877U 25223Z   25303.88320046  .00063054  00000+0  11319-2 0  9995
2 65877  53.1601 179.0934 0000946 109.6755 250.4356 15.49327725  4303
STARLINK-35453          
1 65878U 25223AA  25303.91668981 -.02054587  00000+0 -49923-1 0  9999
2 65878  53.1593 178.9638 0001265  82.3912  89.5666 15.44002823  5603
STARLINK-35418          
1 65879U 25223AB  25303.88285686  .00055976  00000+0  10067-2 0  9990
2 65879  53.1602 179.0918 0001134  85.8507 274.2632 15.49326013  4308
STARLINK-35445          
1 65880U 25223AC  25303.88354513  .00105869  00000+0  18836-2 0  9997
2 65880  53.1600 179.0967 0001142  61.0010 299.1113 15.49343974  4301
STARLINK-35464          
1 65881U 25223AD  25303.88251461  .00065149  00000+0  11679-2 0  9990
2 65881  53.1604 179.0893 0001756 122.5582 237.5597 15.49351248  4307
STARLINK-35270          
1 65882U 25224A   25303.91668981 -.00129321  00000+0 -23506-2 0  9992
2 65882  53.1588 256.2368 0001316  99.2193 342.2915 15.49370524  4973
STARLINK-35367          
1 65883U 25224B   25303.91668981 -.00130373  00000+0 -23699-2 0  9995
2 65883  53.1586 256.2291 0001401  99.1372 346.2050 15.49372142  4972
STARLINK-35384          
1 65884U 25224C   25303.91668981 -.00141873  00000+0 -25827-2 0  9998
2 65884  53.1591 256.2198 0001269 103.4820 345.6894 15.49381232  4973
STARLINK-35415          
1 65885U 25224D   25303.91668981 -.00131261  00000+0 -23864-2 0  9998
2 65885  53.1591 256.2122 0001440 100.1208 352.8889 15.49372640  4928
STARLINK-35413          
1 65886U 25224E   25303.91668981 -.00123783  00000+0 -22434-2 0  9991
2 65886  53.1590 256.2047 0002029  92.3982   4.3375 15.49426696  4929
STARLINK-35332          
1 65887U 25224F   25303.91668981 -.00124785  00000+0 -22618-2 0  9999
2 65887  53.1590 256.2005 0002117  93.6227   5.0292 15.49427622  5004
STARLINK-35362          
1 65888U 25224G   25303.91668981 -.00122452  00000+0 -22236-2 0  9995
2 65888  53.1586 256.2320 0001378 100.6821 342.7424 15.49367580  4976
STARLINK-35193          
1 65889U 25224H   25303.91668981 -.00171627  00000+0 -31290-2 0  9994
2 65889  53.1599 255.9632 0002112 123.0135  89.9007 15.49458317  5008
STARLINK-34542          
1 65890U 25224J   25303.91668981 -.00139055  00000+0 -25305-2 0  9995
2 65890  53.1588 256.2237 0001397 103.2691 343.9876 15.49378599  5026
STARLINK-34791          
1 65891U 25224K   25303.91668981 -.00048622  00000+0 -87166-3 0  9999
2 65891  53.1598 255.9707 0001298  89.5203 119.7171 15.49306621  5025
STARLINK-34853          
1 65892U 25224L   25303.91668981  .00093124  00000+0  16675-2 0  9991
2 65892  53.1590 256.2158 0001521 101.8559 349.2521 15.49223707  4956
STARLINK-34921          
1 65893U 25224M   25303.91668981 -.00151356  00000+0 -27523-2 0  9990
2 65893  53.1600 255.9588 0002099 122.6818  92.1438 15.49448749  5027
STARLINK-34672          
1 65894U 25224N   25303.91668981 -.00165567  00000+0 -30162-2 0  9993
2 65894  53.1598 255.9671 0002194 122.5184  88.4777 15.49455140  5025
STARLINK-34898          
1 65895U 25224P   25303.91668981 -.00182833  00000+0 -33381-2 0  9995
2 65895  53.1599 255.9505 0002269 120.7098  97.9573 15.49462026  5020
STARLINK-34906          
1 65896U 25224Q   25303.91668981 -.00159752  00000+0 -29080-2 0  9991
2 65896  53.1600 255.9548 0001925 124.9801  91.7629 15.49454765  5022
STARLINK-34934          
1 65897U 25224R   25303.91668981 -.00136647  00000+0 -24865-2 0  9996
2 65897  53.1597 255.9423 0001549 104.5046 118.1132 15.49370459  4970
STARLINK-34936          
1 65898U 25224S   25303.91668981 -.00223875  00000+0 -41142-2 0  9994
2 65898  53.1598 255.9471 0001878 118.5501 102.1099 15.49438344  5021
STARLINK-35272          
1 65899U 25224T   25303.91668981 -.00112014  00000+0 -20311-2 0  9992
2 65899  53.1599 255.9375 0001240  99.7418 124.7868 15.49361664  5019
STARLINK-35264          
1 65900U 25224U   25303.91668981 -.00131223  00000+0 -23856-2 0  9995
2 65900  53.1600 255.9338 0001386 102.4641 123.9780 15.49373729  5014
STARLINK-35249          
1 65901U 25224V   25303.91668981 -.00133194  00000+0 -24222-2 0  9993
2 65901  53.1599 255.9304 0001484 104.1168 124.2451 15.49373039  5009
STARLINK-35278          
1 65902U 25224W   25303.91668981 -.00125583  00000+0 -22819-2 0  9997
2 65902  53.1600 255.9180 0001379 101.1191 133.0011 15.49363294  5025
STARLINK-35210          
1 65903U 25224X   25303.91668981 -.00140019  00000+0 -25488-2 0  9994
2 65903  53.1600 255.9223 0001516 104.8716 127.3267 15.49374587  5004
STARLINK-35348          
1 65904U 25224Y   25303.91668981 -.00120932  00000+0 -21955-2 0  9992
2 65904  53.1601 255.9261 0001309 103.0899 127.1883 15.49366506  4970
STARLINK-35380          
1 65905U 25224Z   25303.91668981 -.00089965  00000+0 -16269-2 0  9995
2 65905  53.1600 255.9151 0001366 105.0219 131.0434 15.49330370  4975
STARLINK-35385          
1 65906U 25224AA  25303.91668981 -.00155877  00000+0 -28427-2 0  9991
2 65906  53.1598 255.9065 0001426  97.5233 142.3327 15.49388234  5007
STARLINK-35347          
1 65907U 25224AB  25303.91668981 -.00254986  00000+0 -47047-2 0  9992
2 65907  53.1599 255.9025 0001405  99.0997 142.6602 15.49445306  5009
STARLINK-35329          
1 65908U 25224AC  25303.91668981 -.00138468  00000+0 -25199-2 0  9993
2 65908  53.1598 255.9102 0001506  88.3397 149.6023 15.49375225  5019
STARLINK-35387          
1 65909U 25224AD  25303.91668981 -.00128517  00000+0 -23357-2 0  9992
2 65909  53.1597 255.8977 0001623 107.7326 135.9641 15.49369059  4972
STARLINK-35523          
1 65910U 25225A   25303.91668981 -.02016431  00000+0 -28713-1 0  9998
2 65910  53.1591  51.1918 0001072  76.2413 186.9465 15.59284473  4545
STARLINK-35160          
1 65911U 25225B   25303.91668981 -.02017924  00000+0 -28737-1 0  9993
2 65911  53.1589  51.1885 0000978  67.1553 197.9492 15.59286001  4499
STARLINK-35508          
1 65912U 25225C   25303.91668981 -.02017037  00000+0 -28723-1 0  9994
2 65912  53.1595  51.1833 0001008  75.3048 191.7154 15.59285595  4499
